[{"OBJECT_NAME":"TEIKYOSAT-4 (OORURI)","OBJECT_ID":"2021-102B","EPOCH":"2026-03-09T16:12:29.535840","MEAN_MOTION":15.09119208,"ECCENTRICITY":0.00103447,"INCLINATION":97.3797,"RA_OF_ASC_NODE":101.9931,"ARG_OF_PERICENTER":276.5421,"MEAN_ANOMALY":83.463,"EPHEMERIS_TYPE":0,"CLASSIFICATION_TYPE":"U","NORAD_CAT_ID":49396,"ELEMENT_SET_NO":999,"REV_AT_EPOCH":23771,"BSTAR":0.00015739844,"MEAN_MOTION_DOT":2.438e-5,"MEAN_MOTION_DDOT":0},{"OBJECT_NAME":"STARLINK-4253","OBJECT_ID":"2022-076U","EPOCH":"2026-03-09T11:30:39.693312","MEAN_MOTION":15.08837514,"ECCENTRICITY":0.00011418,"INCLINATION":53.2168,"RA_OF_ASC_NODE":95.0645,"ARG_OF_PERICENTER":99.2323,"MEAN_ANOMALY":260.8799,"EPHEMERIS_TYPE":0,"CLASSIFICATION_TYPE":"U","NORAD_CAT_ID":53004,"ELEMENT_SET_NO":999,"REV_AT_EPOCH":20281,"BSTAR":-1.997955e-6,"MEAN_MOTION_DOT":-3.2e-6,"MEAN_MOTION_DDOT":0}]
