TEIKYOSAT-4 (OORURI)    
1 49396U 21102B   26068.67534185  .00002438  00000+0  15740-3 0  9994
2 49396  97.3797 101.9931 0010345 276.5421  83.4630 15.09119208237719
STARLINK-4253           
1 53004U 22076U   26068.47962608 -.00000320  00000+0 -19980-5 0  9991
2 53004  53.2168  95.0645 0001141  99.2323 260.8799 15.08837514202819
